BEIDOU-2 IGSO-1 (C06)   
1 36828U 10036A   25013.34316887 -.00000107  00000+0  00000+0 0  9995
2 36828  54.2668 167.6610 0043756 206.7787 329.5863  1.00269741 52888
BEIDOU-2 G4 (C04)       
1 37210U 10057A   25013.51758958 -.00000115  00000+0  00000+0 0  9991
2 37210   2.3582  70.3667 0009456 194.8627 194.3162  1.00270641 52087
BEIDOU-2 IGSO-2 (C07)   
1 37256U 10068A   25013.61884693 -.00000183  00000+0  00000+0 0  9995
2 37256  48.4898 278.2480 0039199 214.4750 311.0826  1.00285589 51589
BEIDOU-2 IGSO-3 (C08)   
1 37384U 11013A   25013.01771715 -.00000160  00000+0  00000+0 0  9997
2 37384  61.6578  45.0900 0029633 184.8704 354.1682  1.00256235 50449
BEIDOU-2 IGSO-4 (C09)   
1 37763U 11038A   25012.91706692 -.00000039  00000+0  00000+0 0  9990
2 37763  54.5714 170.3203 0132087 228.6180 139.3647  1.00263638 49430
BEIDOU-2 IGSO-5 (C10)   
1 37948U 11073A   25012.69732500 -.00000164  00000+0  00000+0 0  9995
2 37948  48.6274 277.9572 0101326 220.6008 320.4691  1.00284813 47917
BEIDOU-2 G5 (C05)       
1 38091U 12008A   25013.47614153  .00000055  00000+0  00000+0 0  9992
2 38091   2.2790  71.1717 0013351 233.6085  38.5261  1.00273362 47153
BEIDOU-2 M3 (C11)       
1 38250U 12018A   25013.41763954 -.00000099  00000+0  00000+0 0  9997
2 38250  56.1878 322.3308 0024286 271.4209  88.2949  1.86233608 86262
BEIDOU-2 M4 (C12)       
1 38251U 12018B   25012.27461128 -.00000099  00000+0  00000+0 0  9999
2 38251  56.0936 321.6247 0015285 276.1798  83.6383  1.86232034 86246
BEIDOU-2 M6 (C14)       
1 38775U 12050B   25010.91056149 -.00000061  00000+0  00000+0 0  9997
2 38775  56.0844  80.2293 0012091 335.2039  24.7826  1.86230840 83586
BEIDOU-2 G6 (C02)       
1 38953U 12059A   25013.48118059 -.00000178  00000+0  00000+0 0  9997
2 38953   3.0980  78.7948 0008870 287.5232   4.1023  1.00271610 44696
BEIDOU-3S IGSO-1S (C31) 
1 40549U 15019A   25013.60686315 -.00000176  00000+0  00000+0 0  9997
2 40549  50.1787 301.6957 0034042 197.2537 287.2732  1.00257240 35864
BEIDOU-3S M2S (C58)     
1 40748U 15037A   25012.47584168 -.00000098  00000+0  00000+0 0  9998
2 40748  55.3191 319.9072 0011654 268.1431  91.7181  1.86229032 64428
BEIDOU-3S M1S (C57)     
1 40749U 15037B   25012.21253039 -.00000098  00000+0  00000+0 0  9991
2 40749  55.3219 319.9029 0004655 335.5408  24.4312  1.86227465 64425
BEIDOU-3S IGSO-2S (C56) 
1 40938U 15053A   25013.61298931 -.00000090  00000+0  00000+0 0  9996
2 40938  50.0269 264.9390 0051740 187.4635 336.1810  1.00257787 34143
BEIDOU-2 IGSO-6 (C13)   
1 41434U 16021A   25012.80465847 -.00000150  00000+0  00000+0 0  9993
2 41434  59.4866  43.2360 0055140 228.4235 227.4995  1.00273825 32264
BEIDOU-2 G7 (C03)       
1 41586U 16037A   25013.34342951 -.00000355  00000+0  00000+0 0  9995
2 41586   1.8841  67.8777 0007632 343.6839 295.5378  1.00277853  1670
BEIDOU-3 M1 (C19)       
1 43001U 17069A   25012.82420624 -.00000049  00000+0  00000+0 0  9991
2 43001  56.2357  80.2887 0010432 298.2257  61.7226  1.86231109 48913
BEIDOU-3 M2 (C20)       
1 43002U 17069B   25013.29882106 -.00000046  00000+0  00000+0 0  9998
2 43002  56.2351  80.3094 0007704 319.5436  40.4551  1.86230900 48916
BEIDOU-3 M7 (C27)       
1 43107U 18003A   25012.50897666 -.00000099  00000+0  00000+0 0  9991
2 43107  54.7777 320.4050 0003371  54.1318 305.8940  1.86232297 47655
BEIDOU-3 M8 (C28)       
1 43108U 18003B   25011.37722988 -.00000100  00000+0  00000+0 0  9993
2 43108  54.7714 320.4286 0004575 277.8203  82.1209  1.86230743 47648
BEIDOU-3 M4 (C22)       
1 43207U 18018A   25012.89234599 -.00000049  00000+0  00000+0 0  9995
2 43207  56.1946  80.3682 0004775 347.3373  12.7045  1.86231056 47056
BEIDOU-3 M3 (C21)       
1 43208U 18018B   25013.49586903 -.00000045  00000+0  00000+0 0  9998
2 43208  56.1945  80.3525 0007951 308.4119  51.5734  1.86231235 47063
BEIDOU-3 M9 (C29)       
1 43245U 18029A   25013.17821803 -.00000095  00000+0  00000+0 0  9992
2 43245  54.6535 318.0687 0001711 299.2633  60.7184  1.86232499 46218
BEIDOU-3 M10 (C30)      
1 43246U 18029B   25013.10787632 -.00000096  00000+0  00000+0 0  9998
2 43246  54.6513 318.0990 0004743 357.8755   2.1209  1.86228837 46204
BEIDOU-2 IGSO-7 (C16)   
1 43539U 18057A   25013.34334263 -.00000106  00000+0  00000+0 0  9990
2 43539  55.1595 167.5538 0079786 232.1932 306.2489  1.00247598 23924
BEIDOU-3 M5 (C23)       
1 43581U 18062A   25011.18603858  .00000099  00000+0  00000+0 0  9992
2 43581  54.1126 200.0529 0001638 353.5668   6.4578  1.86228582 43913
BEIDOU-3 M6 (C24)       
1 43582U 18062B   25011.05077902  .00000101  00000+0  00000+0 0  9998
2 43582  54.1122 200.0470 0007371  44.9253 315.1618  1.86229517 43910
BEIDOU-3 M12 (C26)      
1 43602U 18067A   25012.05903043  .00000083  00000+0  00000+0 0  9990
2 43602  54.2044 198.7133 0008642  37.1757 322.9022  1.86227732 43418
BEIDOU-3 M11 (C25)      
1 43603U 18067B   25012.19263823  .00000081  00000+0  00000+0 0  9999
2 43603  54.2017 198.6734 0005221  33.9959 326.0546  1.86227218 43441
BEIDOU-3 M13 (C32)      
1 43622U 18072A   25012.69000029 -.00000051  00000+0  00000+0 0  9996
2 43622  56.1663  79.9006 0007195 292.8581  67.1193  1.86230964 42961
BEIDOU-3 M14 (C33)      
1 43623U 18072B   25011.48155801 -.00000058  00000+0  00000+0 0  9999
2 43623  56.1671  79.9343 0004331 316.2633  43.7497  1.86230902 42939
BEIDOU-3 M16 (C35)      
1 43647U 18078A   25012.17970907 -.00000097  00000+0  00000+0 0  9993
2 43647  54.5511 318.1850 0007685  12.5091 347.5060  1.86232209 42450
BEIDOU-3 M15 (C34)      
1 43648U 18078B   25013.38278931 -.00000095  00000+0  00000+0 0  9994
2 43648  54.5457 318.1453 0004494  13.1486 346.8624  1.86232059 42494
BEIDOU-3 G1 (C59)       
1 43683U 18085A   25013.58390590 -.00000281  00000+0  00000+0 0  9996
2 43683   2.7162 102.3869 0001058  74.7308 286.4278  1.00272856 22851
BEIDOU-3 M17 (C36)      
1 43706U 18093A   25012.99913224  .00000068  00000+0  00000+0 0  9992
2 43706  54.1957 199.9452 0006040 299.3864  60.5673  1.86228366 41850
BEIDOU-3 M18 (C37)      
1 43707U 18093B   25012.86275794  .00000070  00000+0  00000+0 0  9995
2 43707  54.1969 199.9417 0005941 344.1532  15.8433  1.86229833 41841
BEIDOU-3 IGSO-1 (C38)   
1 44204U 19023A   25013.60827403 -.00000203  00000+0  00000+0 0  9994
2 44204  57.9520  43.0238 0023620 225.0872 182.4377  1.00291301  2004
BEIDOU-2 G8 (C01)       
1 44231U 19027A   25013.57132437 -.00000250  00000+0  00000+0 0  9992
2 44231   2.0022  74.8814 0005087 207.6974 180.8737  1.00273513 20872
BEIDOU-3 IGSO-2 (C39)   
1 44337U 19035A   25013.23927241 -.00000124  00000+0  00000+0 0  9996
2 44337  55.1982 163.4254 0035718 197.7896 316.1152  1.00274120 20456
BEIDOU-3 M24 (C46)      
1 44542U 19061A   25012.93298390  .00000070  00000+0  00000+0 0  9994
2 44542  54.4232 200.2754 0008958  19.9168 340.1336  1.86229167 36107
BEIDOU-3 M23 (C45)      
1 44543U 19061B   25013.54190615  .00000061  00000+0  00000+0 0  9994
2 44543  54.4219 200.2233 0005564  19.3351 301.5950  1.86229424 36113
BEIDOU-3 IGSO-3 (C40)   
1 44709U 19073A   25013.15341762 -.00000185  00000+0  00000+0 0  9997
2 44709  55.6913 286.4970 0041058 184.0180 176.0131  1.00293038 19242
BEIDOU-3 M22 (C44)      
1 44793U 19078A   25013.31386229 -.00000096  00000+0  00000+0 0  9991
2 44793  54.3974 318.0519 0006508  16.8697 343.1510  1.86231886 34966
BEIDOU-3 M21 (C43)      
1 44794U 19078B   25012.36984712 -.00000097  00000+0  00000+0 0  9998
2 44794  54.3717 318.0564 0004697   6.5204 353.4825  1.86227609 34959
BEIDOU-3 M19 (C41)      
1 44864U 19090A   25013.22164737 -.00000047  00000+0  00000+0 0  9998
2 44864  56.1009  80.0421 0018734 281.3664 121.9618  1.86231397 34541
BEIDOU-3 M20 (C42)      
1 44865U 19090B   25013.60966869 -.00000045  00000+0  00000+0 0  9995
2 44865  56.1030  80.0628 0016149 293.4109  99.7566  1.86231387 34544
BEIDOU-3 G2 (C60)       
1 45344U 20017A   25013.48031178 -.00000143  00000+0  00000+0 0  9990
2 45344   2.6141  36.6992 0003314 260.8239  68.5900  1.00272787 18047
BEIDOU-3 G3 (C61)       
1 45807U 20040A   25013.70071765 -.00000355  00000+0  00000+0 0  9996
2 45807   1.2037  59.1144 0003496 302.4951 114.5865  1.00274013 16879
BEIDOU-3 G4 (C62)       
1 56564U 23066A   25013.51770237 -.00000110  00000+0  00000+0 0  9997
2 56564   1.5999 289.4849 0002846 268.1679 261.8687  1.00273020  6182
BEIDOU-3 M28 (C50)      
1 58654U 23207A   25011.91542260 -.00000058  00000+0  00000+0 0  9992
2 58654  55.2860  79.9568 0003534 270.2783  89.7295  1.86231897  7130
BEIDOU-3 M26 (C48)      
1 58655U 23207B   25012.78879079 -.00000052  00000+0  00000+0 0  9994
2 58655  55.2887  79.9128 0004714 257.4533 102.5466  1.86231423  7132
